IRIDIUM 136             
1 42962U 17061H   24108.91577176  .00000062  00000+0  14949-4 0  9994
2 42962  86.4013 355.5157 0002426  89.7061 270.4413 14.34218197341563
